[{"OBJECT_NAME":"OBJECT G","OBJECT_ID":"2025-155G","EPOCH":"2026-03-09T22:09:56.639808","MEAN_MOTION":15.27590702,"ECCENTRICITY":0.00081871,"INCLINATION":97.4488,"RA_OF_ASC_NODE":37.3259,"ARG_OF_PERICENTER":154.1528,"MEAN_ANOMALY":206.0122,"EPHEMERIS_TYPE":0,"CLASSIFICATION_TYPE":"U","NORAD_CAT_ID":64882,"ELEMENT_SET_NO":999,"REV_AT_EPOCH":6559,"BSTAR":0.0004792617,"MEAN_MOTION_DOT":0.00012876,"MEAN_MOTION_DDOT":0},{"OBJECT_NAME":"STARLINK-36420","OBJECT_ID":"2026-003P","EPOCH":"2026-03-09T12:00:46.948032","MEAN_MOTION":15.27592799,"ECCENTRICITY":0.00015663,"INCLINATION":43.0005,"RA_OF_ASC_NODE":228.245,"ARG_OF_PERICENTER":255.7732,"MEAN_ANOMALY":104.2945,"EPHEMERIS_TYPE":0,"CLASSIFICATION_TYPE":"U","NORAD_CAT_ID":67347,"ELEMENT_SET_NO":999,"REV_AT_EPOCH":879,"BSTAR":0.0010183321,"MEAN_MOTION_DOT":0.00027877,"MEAN_MOTION_DDOT":0}]
